     2              NAVIGATION DATA                         RINEX VERSION / TYPE
CCRINEXN V1.6.0 UX  CDDIS               09-MAR-16 23:39     PGM / RUN BY / DATE 
IGS BROADCAST EPHEMERIS FILE                                COMMENT             
    0.1583D-07  0.0000D+00 -0.1192D-06  0.0000D+00          ION ALPHA           
    0.1126D+06 -0.1638D+05 -0.2621D+06  0.6554D+05          ION BETA            
    0.000000000000D+00 0.266453525910D-14   503808     1887 DELTA-UTC: A0,A1,T,W
    17                                                      LEAP SECONDS        
                                                            END OF HEADER       
 5 16  3  9 12  0  0.0-0.139170326293D-03 0.329691829393D-11 0.000000000000D+00
    0.600000000000D+01-0.965625000000D+01 0.459912019579D-08 0.210696984832D+01
   -0.398606061935D-06 0.456312345341D-02 0.151824206114D-04 0.515375828743D+04
    0.302400000000D+06-0.115483999252D-06 0.248992782520D+00 0.298023223877D-07
    0.946905698880D+00 0.806875000000D+02 0.475259698828D+00-0.799711852295D-08
    0.111076058074D-09 0.100000000000D+01 0.188700000000D+04 0.000000000000D+00
    0.200000000000D+01 0.000000000000D+00-0.107102096081D-07 0.600000000000D+01
    0.295230000000D+06 0.000000000000D+00 0.000000000000D+00 0.000000000000D+00
 6 16  3  9 12  0  0.0 0.157653354108D-03 0.591171556152D-11 0.000000000000D+00
    0.180000000000D+02-0.103468750000D+03 0.488270357479D-08-0.775047620073D-01
   -0.551715493202D-05 0.373323098756D-03 0.615417957306D-05 0.515364894486D+04
    0.302400000000D+06 0.260770320892D-07-0.789475140534D+00 0.111758708954D-07
    0.963733273965D+00 0.263031250000D+03-0.182188103974D+01-0.844178060788D-08
   -0.541093947426D-09 0.100000000000D+01 0.188700000000D+04 0.000000000000D+00
    0.200000000000D+01 0.000000000000D+00 0.419095158577D-08 0.180000000000D+02
    0.295230000000D+06 0.000000000000D+00 0.000000000000D+00 0.000000000000D+00
 7 16  3  9 12  0  0.0 0.466094352305D-03-0.181898940355D-11 0.000000000000D+00
    0.650000000000D+02-0.852812500000D+02 0.452054544172D-08-0.152859710745D+01
   -0.456161797047D-05 0.912324676756D-02 0.730156898499D-05 0.515366222000D+04
    0.302400000000D+06 0.763684511185D-07 0.237834668478D+01-0.130385160446D-06
    0.967100574912D+00 0.240906250000D+03-0.268118648721D+01-0.811640950961D-08
   -0.624668877109D-09 0.000000000000D+00 0.188700000000D+04 0.000000000000D+00
    0.200000000000D+01 0.000000000000D+00-0.111758708954D-07 0.650000000000D+02
    0.295200000000D+06 0.400000000000D+01 0.000000000000D+00 0.000000000000D+00
 8 16  3  9 12  0  0.0-0.268067233264D-04-0.136424205266D-11 0.000000000000D+00
    0.540000000000D+02 0.840000000000D+02 0.488091759552D-08 0.239232272239D+01
    0.434555113316D-05 0.183001556434D-02 0.347569584847D-05 0.515365483284D+04
    0.302400000000D+06 0.614672899246D-07-0.184136036597D+01 0.000000000000D+00
    0.962076822064D+00 0.312562500000D+03-0.129612183306D+01-0.849642533879D-08
    0.475376944215D-09 0.000000000000D+00 0.188700000000D+04 0.000000000000D+00
    0.200000000000D+01 0.000000000000D+00 0.465661287308D-08 0.540000000000D+02
    0.295200000000D+06 0.400000000000D+01 0.000000000000D+00 0.000000000000D+00
 9 16  3  9 12  0  0.0 0.863475725055D-04 0.761701812735D-11 0.000000000000D+00
    0.550000000000D+02 0.721250000000D+02 0.511771317330D-08 0.122476191947D+01
    0.358372926712D-05 0.666035688482D-03 0.449270009994D-05 0.515361739731D+04
    0.302400000000D+06 0.149011611938D-07 0.129997426106D+01-0.931322574616D-08
    0.955217740470D+00 0.287750000000D+03 0.197763724154D+01-0.857750014445D-08
    0.375372778640D-09 0.000000000000D+00 0.188700000000D+04 0.000000000000D+00
    0.200000000000D+01 0.000000000000D+00 0.139698386192D-08 0.550000000000D+02
    0.295200000000D+06 0.400000000000D+01 0.000000000000D+00 0.000000000000D+00
10 16  3  9 12  0  0.0 0.308910384774D-04-0.761701812735D-11 0.000000000000D+00
    0.630000000000D+02 0.112500000000D+01 0.427196365872D-08-0.301425577428D+01
    0.104308128357D-06 0.125206832308D-02 0.142212957144D-04 0.515369620895D+04
    0.302400000000D+06 0.372529029846D-08 0.255764229470D+00-0.186264514923D-08
    0.960062168820D+00 0.107593750000D+03-0.284344383989D+01-0.781996859022D-08
    0.120362156424D-09 0.100000000000D+01 0.188700000000D+04 0.000000000000D+00
    0.200000000000D+01 0.000000000000D+00 0.232830643654D-08 0.630000000000D+02
    0.296916000000D+06 0.400000000000D+01 0.000000000000D+00 0.000000000000D+00
11 16  3  9 12  0  0.0-0.635938718915D-03-0.170530256582D-11 0.000000000000D+00
    0.690000000000D+02-0.594375000000D+02 0.667384942119D-08-0.140805279962D+01
   -0.262819230556D-05 0.162295639748D-01 0.193715095520D-05 0.515364785576D+04
    0.302400000000D+06-0.409781932831D-07-0.115250960683D+01 0.383704900742D-06
    0.895590320155D+00 0.305968750000D+03 0.150691481678D+01-0.944896501589D-08
   -0.221794952936D-09 0.000000000000D+00 0.188700000000D+04 0.000000000000D+00
    0.200000000000D+01 0.000000000000D+00-0.121071934700D-07 0.690000000000D+02
    0.295200000000D+06 0.400000000000D+01 0.000000000000D+00 0.000000000000D+00
12 16  3  9 12  0  0.0 0.371691770852D-03 0.159161572810D-11 0.000000000000D+00
    0.700000000000D+02 0.305625000000D+02 0.336406880130D-08-0.196223644899D+01
    0.158883631229D-05 0.595576246269D-02 0.149644911289D-04 0.515377983284D+04
    0.302400000000D+06 0.186264514923D-08-0.283098862412D+01-0.109896063805D-06
    0.990657824783D+00 0.105906250000D+03 0.682901695974D+00-0.737173566634D-08
    0.200722646837D-09 0.100000000000D+01 0.188700000000D+04 0.000000000000D+00
    0.200000000000D+01 0.000000000000D+00-0.121071934700D-07 0.700000000000D+02
    0.295230000000D+06 0.000000000000D+00 0.000000000000D+00 0.000000000000D+00
13 16  3  9 12  0  0.0-0.218860805035D-05-0.284217094304D-11 0.000000000000D+00
    0.330000000000D+02 0.552187500000D+02 0.488484630523D-08-0.575029787270D+00
    0.299885869026D-05 0.464334175922D-02 0.427104532719D-05 0.515367446327D+04
    0.302400000000D+06-0.279396772385D-07 0.141955942566D+01-0.502914190292D-07
    0.971601927029D+00 0.300843750000D+03 0.198518139743D+01-0.852714077126D-08
    0.357514878813D-09 0.100000000000D+01 0.188700000000D+04 0.000000000000D+00
    0.200000000000D+01 0.000000000000D+00-0.111758708954D-07 0.330000000000D+02
    0.295230000000D+06 0.000000000000D+00 0.000000000000D+00 0.000000000000D+00
14 16  3  9 12  0  0.0-0.149477273226D-05-0.227373675443D-11 0.000000000000D+00
    0.420000000000D+02 0.615000000000D+02 0.493520557112D-08 0.124840152432D+01
    0.312738120556D-05 0.836985732894D-02 0.449456274509D-05 0.515373029137D+04
    0.302400000000D+06-0.223517417908D-06 0.138300042846D+01 0.279396772385D-07
    0.964113758477D+00 0.298062500000D+03-0.195370775216D+01-0.859107213835D-08
    0.301441127661D-09 0.100000000000D+01 0.188700000000D+04 0.000000000000D+00
    0.200000000000D+01 0.000000000000D+00-0.931322574616D-08 0.420000000000D+02
    0.295200000000D+06 0.000000000000D+00 0.000000000000D+00 0.000000000000D+00
16 16  3  9 12  0  0.0-0.335862860084D-04 0.295585778076D-11 0.000000000000D+00
    0.370000000000D+02 0.434687500000D+02 0.340157026048D-08 0.226328732643D+01
    0.227615237236D-05 0.865820550825D-02 0.141095370054D-04 0.515373015594D+04
    0.302400000000D+06-0.147148966789D-06-0.281224276552D+01-0.111758708954D-07
    0.991167688307D+00 0.125343750000D+03 0.337040939954D+00-0.747531137672D-08
    0.156435087578D-09 0.100000000000D+01 0.188700000000D+04 0.000000000000D+00
    0.200000000000D+01 0.000000000000D+00-0.102445483208D-07 0.370000000000D+02
    0.295218000000D+06 0.400000000000D+01 0.000000000000D+00 0.000000000000D+00
17 16  3  9 12  0  0.0-0.201784539968D-03-0.568434188608D-12 0.000000000000D+00
    0.900000000000D+02 0.757500000000D+02 0.472698261208D-08 0.131178805747D+01
    0.387988984585D-05 0.109891395550D-01 0.391714274883D-05 0.515364498520D+04
    0.302400000000D+06-0.229105353355D-06-0.178982786387D+01-0.763684511185D-07
    0.975193744939D+00 0.309468750000D+03-0.193907166347D+01-0.856749972790D-08
    0.496806408267D-09 0.000000000000D+00 0.188700000000D+04 0.000000000000D+00
    0.280000000000D+01 0.000000000000D+00-0.107102096081D-07 0.900000000000D+02
    0.295200000000D+06 0.400000000000D+01 0.000000000000D+00 0.000000000000D+00
18 16  3  9 12  0  0.0 0.491746701300D-03 0.409272615798D-11 0.000000000000D+00
    0.170000000000D+02-0.216875000000D+02 0.496984986498D-08 0.287356827677D+01
   -0.109337270260D-05 0.167864799732D-01 0.141002237797D-04 0.515367603683D+04
    0.302400000000D+06 0.139698386192D-06 0.229627607792D+00-0.219792127609D-06
    0.925542684225D+00 0.841875000000D+02-0.190760127758D+01-0.791032928049D-08
    0.410731379463D-10 0.100000000000D+01 0.188700000000D+04 0.000000000000D+00
    0.200000000000D+01 0.000000000000D+00-0.111758708954D-07 0.170000000000D+02
    0.297570000000D+06 0.000000000000D+00 0.000000000000D+00 0.000000000000D+00
19 16  3  9 12  0  0.0-0.525204464793D-03-0.227373675443D-12 0.000000000000D+00
    0.660000000000D+02 0.685000000000D+02 0.478019890338D-08-0.183910080268D+01
    0.340864062309D-05 0.107373328647D-01 0.288151204586D-05 0.515359934235D+04
    0.302400000000D+06 0.113621354103D-06-0.174081647579D+01-0.115483999252D-06
    0.972258617788D+00 0.324000000000D+03 0.721627902447D+00-0.838570635153D-08
    0.613597006538D-09 0.100000000000D+01 0.188700000000D+04 0.000000000000D+00
    0.200000000000D+01 0.000000000000D+00-0.153668224812D-07 0.660000000000D+02
    0.295230000000D+06 0.000000000000D+00 0.000000000000D+00 0.000000000000D+00
